[{"OBJECT_NAME":"STARLINK-34266","OBJECT_ID":"2025-167R","EPOCH":"2026-03-09T06:30:00.393696","MEAN_MOTION":15.30187195,"ECCENTRICITY":0.00014315,"INCLINATION":53.1616,"RA_OF_ASC_NODE":28.7498,"ARG_OF_PERICENTER":92.1443,"MEAN_ANOMALY":267.9722,"EPHEMERIS_TYPE":0,"CLASSIFICATION_TYPE":"U","NORAD_CAT_ID":65093,"ELEMENT_SET_NO":999,"REV_AT_EPOCH":3341,"BSTAR":0.00079730713,"MEAN_MOTION_DOT":0.0002332,"MEAN_MOTION_DDOT":0},{"OBJECT_NAME":"FENGYUN 1C DEB","OBJECT_ID":"1999-025BZU","EPOCH":"2026-03-09T17:19:51.665664","MEAN_MOTION":15.28412118,"ECCENTRICITY":0.00188802,"INCLINATION":98.9598,"RA_OF_ASC_NODE":354.2029,"ARG_OF_PERICENTER":82.3682,"MEAN_ANOMALY":277.9697,"EPHEMERIS_TYPE":0,"CLASSIFICATION_TYPE":"U","NORAD_CAT_ID":31614,"ELEMENT_SET_NO":999,"REV_AT_EPOCH":97742,"BSTAR":0.011500831,"MEAN_MOTION_DOT":0.0033373,"MEAN_MOTION_DDOT":0}]
